[{"OBJECT_NAME":"CONTECSAT-1","OBJECT_ID":"2024-043V","EPOCH":"2026-03-09T22:02:35.535840","MEAN_MOTION":15.34615346,"ECCENTRICITY":0.00100896,"INCLINATION":97.5476,"RA_OF_ASC_NODE":207.3735,"ARG_OF_PERICENTER":223.9905,"MEAN_ANOMALY":136.0535,"EPHEMERIS_TYPE":0,"CLASSIFICATION_TYPE":"U","NORAD_CAT_ID":59117,"ELEMENT_SET_NO":999,"REV_AT_EPOCH":11201,"BSTAR":0.0004369392,"MEAN_MOTION_DOT":0.00014607,"MEAN_MOTION_DDOT":0},{"OBJECT_NAME":"STARLINK-35393","OBJECT_ID":"2025-221E","EPOCH":"2026-03-09T10:46:33.143808","MEAN_MOTION":15.30205542,"ECCENTRICITY":0.00013987,"INCLINATION":53.1596,"RA_OF_ASC_NODE":89.6657,"ARG_OF_PERICENTER":94.3604,"MEAN_ANOMALY":265.7557,"EPHEMERIS_TYPE":0,"CLASSIFICATION_TYPE":"U","NORAD_CAT_ID":65827,"ELEMENT_SET_NO":999,"REV_AT_EPOCH":2604,"BSTAR":0.0007632145,"MEAN_MOTION_DOT":0.00022317,"MEAN_MOTION_DDOT":0}]
